[{"OBJECT_NAME":"STARLINK-35302","OBJECT_ID":"2025-221Y","EPOCH":"2026-02-01T21:29:39.274080","MEAN_MOTION":15.30203381,"ECCENTRICITY":0.00012173,"INCLINATION":53.1568,"RA_OF_ASC_NODE":254.565,"ARG_OF_PERICENTER":107.7107,"MEAN_ANOMALY":252.4027,"EPHEMERIS_TYPE":0,"CLASSIFICATION_TYPE":"U","NORAD_CAT_ID":65845,"ELEMENT_SET_NO":999,"REV_AT_EPOCH":1925,"BSTAR":0.00065908973,"MEAN_MOTION_DOT":0.00019214,"MEAN_MOTION_DDOT":0},{"OBJECT_NAME":"STARLINK-35290","OBJECT_ID":"2025-221Z","EPOCH":"2026-02-01T21:19:01.063200","MEAN_MOTION":15.30206843,"ECCENTRICITY":0.00011843,"INCLINATION":53.1569,"RA_OF_ASC_NODE":254.5197,"ARG_OF_PERICENTER":60.8111,"MEAN_ANOMALY":299.3008,"EPHEMERIS_TYPE":0,"CLASSIFICATION_TYPE":"U","NORAD_CAT_ID":65846,"ELEMENT_SET_NO":999,"REV_AT_EPOCH":1925,"BSTAR":0.00064266975,"MEAN_MOTION_DOT":0.00018727,"MEAN_MOTION_DDOT":0},{"OBJECT_NAME":"STARLINK-35262","OBJECT_ID":"2025-221AA","EPOCH":"2026-02-01T21:00:59.024160","MEAN_MOTION":15.30186754,"ECCENTRICITY":0.00013636,"INCLINATION":53.158,"RA_OF_ASC_NODE":255.1541,"ARG_OF_PERICENTER":88.197,"MEAN_ANOMALY":271.9187,"EPHEMERIS_TYPE":0,"CLASSIFICATION_TYPE":"U","NORAD_CAT_ID":65847,"ELEMENT_SET_NO":999,"REV_AT_EPOCH":2059,"BSTAR":0.0018494796,"MEAN_MOTION_DOT":0.00054799,"MEAN_MOTION_DDOT":0},{"OBJECT_NAME":"STARLINK-35308","OBJECT_ID":"2025-221AB","EPOCH":"2026-02-01T21:22:03.733536","MEAN_MOTION":15.30234608,"ECCENTRICITY":8.382e-5,"INCLINATION":53.1582,"RA_OF_ASC_NODE":254.532,"ARG_OF_PERICENTER":11.1148,"MEAN_ANOMALY":348.9871,"EPHEMERIS_TYPE":0,"CLASSIFICATION_TYPE":"U","NORAD_CAT_ID":65848,"ELEMENT_SET_NO":999,"REV_AT_EPOCH":2060,"BSTAR":0.0013924771,"MEAN_MOTION_DOT":0.00041155,"MEAN_MOTION_DDOT":0},{"OBJECT_NAME":"STARLINK-35231","OBJECT_ID":"2025-221AC","EPOCH":"2026-02-01T21:05:30.311520","MEAN_MOTION":15.30204203,"ECCENTRICITY":0.00012049,"INCLINATION":53.1575,"RA_OF_ASC_NODE":255.1738,"ARG_OF_PERICENTER":82.6367,"MEAN_ANOMALY":277.4771,"EPHEMERIS_TYPE":0,"CLASSIFICATION_TYPE":"U","NORAD_CAT_ID":65849,"ELEMENT_SET_NO":999,"REV_AT_EPOCH":2059,"BSTAR":0.00060834172,"MEAN_MOTION_DOT":0.00017703,"MEAN_MOTION_DDOT":0},{"OBJECT_NAME":"STARLINK-35252","OBJECT_ID":"2025-221AD","EPOCH":"2026-02-01T20:56:23.258688","MEAN_MOTION":15.30203002,"ECCENTRICITY":0.00013245,"INCLINATION":53.158,"RA_OF_ASC_NODE":255.1319,"ARG_OF_PERICENTER":96.3192,"MEAN_ANOMALY":263.7959,"EPHEMERIS_TYPE":0,"CLASSIFICATION_TYPE":"U","NORAD_CAT_ID":65850,"ELEMENT_SET_NO":999,"REV_AT_EPOCH":2059,"BSTAR":0.00063000148,"MEAN_MOTION_DOT":0.00018347,"MEAN_MOTION_DDOT":0},{"OBJECT_NAME":"STARLINK-35208","OBJECT_ID":"2025-223A","EPOCH":"2026-02-01T14:18:10.492992","MEAN_MOTION":15.30210489,"ECCENTRICITY":0.00012509,"INCLINATION":53.1593,"RA_OF_ASC_NODE":101.5413,"ARG_OF_PERICENTER":85.9783,"MEAN_ANOMALY":274.1361,"EPHEMERIS_TYPE":0,"CLASSIFICATION_TYPE":"U","NORAD_CAT_ID":65854,"ELEMENT_SET_NO":999,"REV_AT_EPOCH":1868,"BSTAR":0.00098032088,"MEAN_MOTION_DOT":0.00028797,"MEAN_MOTION_DDOT":0},{"OBJECT_NAME":"STARLINK-35200","OBJECT_ID":"2025-223B","EPOCH":"2026-02-01T13:28:10.178688","MEAN_MOTION":15.3020804,"ECCENTRICITY":0.00015477,"INCLINATION":53.1588,"RA_OF_ASC_NODE":102.0313,"ARG_OF_PERICENTER":69.1842,"MEAN_ANOMALY":290.9324,"EPHEMERIS_TYPE":0,"CLASSIFICATION_TYPE":"U","NORAD_CAT_ID":65855,"ELEMENT_SET_NO":999,"REV_AT_EPOCH":1867,"BSTAR":0.00066369581,"MEAN_MOTION_DOT":0.00019354,"MEAN_MOTION_DDOT":0},{"OBJECT_NAME":"STARLINK-35459","OBJECT_ID":"2025-223C","EPOCH":"2026-02-01T13:49:27.384960","MEAN_MOTION":15.30118269,"ECCENTRICITY":0.00017702,"INCLINATION":53.1611,"RA_OF_ASC_NODE":102.1249,"ARG_OF_PERICENTER":85.1886,"MEAN_ANOMALY":274.9317,"EPHEMERIS_TYPE":0,"CLASSIFICATION_TYPE":"U","NORAD_CAT_ID":65856,"ELEMENT_SET_NO":999,"REV_AT_EPOCH":1867,"BSTAR":-0.00082226193,"MEAN_MOTION_DOT":-0.00024572,"MEAN_MOTION_DDOT":0},{"OBJECT_NAME":"STARLINK-35489","OBJECT_ID":"2025-223D","EPOCH":"2026-02-01T14:09:11.747520","MEAN_MOTION":15.30211735,"ECCENTRICITY":0.00012048,"INCLINATION":53.1601,"RA_OF_ASC_NODE":102.2103,"ARG_OF_PERICENTER":70.1579,"MEAN_ANOMALY":289.9552,"EPHEMERIS_TYPE":0,"CLASSIFICATION_TYPE":"U","NORAD_CAT_ID":65857,"ELEMENT_SET_NO":999,"REV_AT_EPOCH":1867,"BSTAR":0.00075938737,"MEAN_MOTION_DOT":0.00022207,"MEAN_MOTION_DDOT":0},{"OBJECT_NAME":"STARLINK-35199","OBJECT_ID":"2025-223E","EPOCH":"2026-02-01T14:40:56.582400","MEAN_MOTION":15.30210215,"ECCENTRICITY":0.00011639,"INCLINATION":53.1582,"RA_OF_ASC_NODE":101.6372,"ARG_OF_PERICENTER":84.0497,"MEAN_ANOMALY":276.0637,"EPHEMERIS_TYPE":0,"CLASSIFICATION_TYPE":"U","NORAD_CAT_ID":65858,"ELEMENT_SET_NO":999,"REV_AT_EPOCH":1868,"BSTAR":0.00077838338,"MEAN_MOTION_DOT":0.00022772,"MEAN_MOTION_DDOT":0},{"OBJECT_NAME":"STARLINK-35408","OBJECT_ID":"2025-223F","EPOCH":"2026-02-01T10:59:34.421856","MEAN_MOTION":15.30186715,"ECCENTRICITY":0.00016695,"INCLINATION":53.1606,"RA_OF_ASC_NODE":102.8109,"ARG_OF_PERICENTER":57.1399,"MEAN_ANOMALY":302.9763,"EPHEMERIS_TYPE":0,"CLASSIFICATION_TYPE":"U","NORAD_CAT_ID":65859,"ELEMENT_SET_NO":999,"REV_AT_EPOCH":1865,"BSTAR":0.00035149365,"MEAN_MOTION_DOT":0.00010061,"MEAN_MOTION_DDOT":0},{"OBJECT_NAME":"STARLINK-35303","OBJECT_ID":"2025-223G","EPOCH":"2026-02-01T12:06:16.427520","MEAN_MOTION":15.30196955,"ECCENTRICITY":0.00012436,"INCLINATION":53.1591,"RA_OF_ASC_NODE":102.3869,"ARG_OF_PERICENTER":82.0587,"MEAN_ANOMALY":278.0555,"EPHEMERIS_TYPE":0,"CLASSIFICATION_TYPE":"U","NORAD_CAT_ID":65860,"ELEMENT_SET_NO":999,"REV_AT_EPOCH":1866,"BSTAR":0.00060618671,"MEAN_MOTION_DOT":0.00017635,"MEAN_MOTION_DDOT":0},{"OBJECT_NAME":"STARLINK-35258","OBJECT_ID":"2025-223H","EPOCH":"2026-02-01T12:12:21.038976","MEAN_MOTION":15.30190334,"ECCENTRICITY":0.00013887,"INCLINATION":53.1608,"RA_OF_ASC_NODE":102.4101,"ARG_OF_PERICENTER":84.7571,"MEAN_ANOMALY":275.3589,"EPHEMERIS_TYPE":0,"CLASSIFICATION_TYPE":"U","NORAD_CAT_ID":65861,"ELEMENT_SET_NO":999,"REV_AT_EPOCH":1866,"BSTAR":0.00085355607,"MEAN_MOTION_DOT":0.00024998,"MEAN_MOTION_DDOT":0},{"OBJECT_NAME":"STARLINK-35386","OBJECT_ID":"2025-223J","EPOCH":"2026-02-01T10:58:03.133344","MEAN_MOTION":15.30186313,"ECCENTRICITY":0.00012441,"INCLINATION":53.1604,"RA_OF_ASC_NODE":102.8029,"ARG_OF_PERICENTER":68.0335,"MEAN_ANOMALY":292.0798,"EPHEMERIS_TYPE":0,"CLASSIFICATION_TYPE":"U","NORAD_CAT_ID":65862,"ELEMENT_SET_NO":999,"REV_AT_EPOCH":1865,"BSTAR":0.00076360163,"MEAN_MOTION_DOT":0.00022315,"MEAN_MOTION_DDOT":0},{"OBJECT_NAME":"STARLINK-35469","OBJECT_ID":"2025-223K","EPOCH":"2026-02-01T10:50:26.885184","MEAN_MOTION":15.30220574,"ECCENTRICITY":0.00010312,"INCLINATION":53.1607,"RA_OF_ASC_NODE":102.7703,"ARG_OF_PERICENTER":141.6316,"MEAN_ANOMALY":218.4759,"EPHEMERIS_TYPE":0,"CLASSIFICATION_TYPE":"U","NORAD_CAT_ID":65863,"ELEMENT_SET_NO":999,"REV_AT_EPOCH":1865,"BSTAR":0.00094431271,"MEAN_MOTION_DOT":0.00027731,"MEAN_MOTION_DDOT":0}]
