STARLINK-35302          
1 65845U 25221Y   26032.89559345  .00019214  00000+0  65909-3 0  9999
2 65845  53.1568 254.5650 0001217 107.7107 252.4027 15.30203381 19254
STARLINK-35290          
1 65846U 25221Z   26032.88820675  .00018727  00000+0  64267-3 0  9990
2 65846  53.1569 254.5197 0001184  60.8111 299.3008 15.30206843 19254
STARLINK-35262          
1 65847U 25221AA  26032.87568315  .00054799  00000+0  18495-2 0  9990
2 65847  53.1580 255.1541 0001363  88.1970 271.9187 15.30186754 20594
STARLINK-35308          
1 65848U 25221AB  26032.89032099  .00041155  00000+0  13925-2 0  9993
2 65848  53.1582 254.5320 0000838  11.1148 348.9871 15.30234608 20603
STARLINK-35231          
1 65849U 25221AC  26032.87882305  .00017703  00000+0  60834-3 0  9999
2 65849  53.1575 255.1738 0001204  82.6367 277.4771 15.30204203 20591
STARLINK-35252          
1 65850U 25221AD  26032.87249142  .00018347  00000+0  63000-3 0  9990
2 65850  53.1580 255.1319 0001324  96.3192 263.7959 15.30203002 20597
STARLINK-35208          
1 65854U 25223A   26032.59595478  .00028797  00000+0  98032-3 0  9994
2 65854  53.1593 101.5413 0001250  85.9783 274.1361 15.30210489 18689
STARLINK-35200          
1 65855U 25223B   26032.56122892  .00019354  00000+0  66370-3 0  9997
2 65855  53.1588 102.0313 0001547  69.1842 290.9324 15.30208040 18672
STARLINK-35459          
1 65856U 25223C   26032.57601140 -.00024572  00000+0 -82226-3 0  9995
2 65856  53.1611 102.1249 0001770  85.1886 274.9317 15.30118269 18670
STARLINK-35489          
1 65857U 25223D   26032.58971930  .00022207  00000+0  75939-3 0  9998
2 65857  53.1601 102.2103 0001204  70.1579 289.9552 15.30211735 18674
STARLINK-35199          
1 65858U 25223E   26032.61176600  .00022772  00000+0  77838-3 0  9991
2 65858  53.1582 101.6372 0001163  84.0497 276.0637 15.30210215 18685
STARLINK-35408          
1 65859U 25223F   26032.45803729  .00010061  00000+0  35149-3 0  9990
2 65859  53.1606 102.8109 0001669  57.1399 302.9763 15.30186715 18650
STARLINK-35303          
1 65860U 25223G   26032.50435680  .00017635  00000+0  60619-3 0  9999
2 65860  53.1591 102.3869 0001243  82.0587 278.0555 15.30196955 18667
STARLINK-35258          
1 65861U 25223H   26032.50857684  .00024998  00000+0  85356-3 0  9997
2 65861  53.1608 102.4101 0001388  84.7571 275.3589 15.30190334 18661
STARLINK-35386          
1 65862U 25223J   26032.45698071  .00022315  00000+0  76360-3 0  9991
2 65862  53.1604 102.8029 0001244  68.0335 292.0798 15.30186313 18654
STARLINK-35469          
1 65863U 25223K   26032.45170006  .00027731  00000+0  94431-3 0  9991
2 65863  53.1607 102.7703 0001031 141.6316 218.4759 15.30220574 18654
